0 INTELSAT 8 (PAS 8)
1 25522U 98065A   18008.08413140 -.00000127  00000-0  00000+0 0  9992
2 25522   1.4725  87.2381 0300645 224.7483 273.5584  0.95185288 70034
0 INTELSAT 6B (PAS 6B)
1 25585U 98075A   18008.10637248 -.00000032  00000-0  00000+0 0  9997
2 25585   7.6196  50.1360 0012021 110.3816 250.4321  0.99150759 69442
0 INTELSAT 9 (PAS 9)
1 26451U 00043A   18008.07637191 -.00000228  00000-0  00000+0 0  9998
2 26451   3.9328  70.3366 0003040 226.4041 168.8204  1.00270991 63946
0 INTELSAT 12 (PAS 12)
1 26590U 00068A   18007.90739126 +.00000126 +00000-0 +00000-0 0  9998
2 26590 000.9233 091.7171 0004910 218.6368 168.6914 01.00273005020819
0 INTELSAT 1R (PAS 1R)
1 26608U 00072A   18007.62910111 -.00000148 +00000-0 +00000-0 0  9992
2 26608 000.7287 093.5999 0000442 161.8452 235.2604 01.00271379010417
0 INTELSAT 10 (PAS 10)
1 26766U 01019A   18008.15479840  .00000115  00000-0  00000+0 0  9999
2 26766   1.9489  84.2403 0004066 221.8387 264.7726  1.00271345 61024
0 INTELSAT 901
1 26824U 01024A   18008.39282177 -.00000150  00000-0  00000+0 0  9991
2 26824   0.0212  36.7478 0002283 257.3638 297.1845  1.00269710 60696
0 INTELSAT 902
1 26900U 01039A   18007.85462671 +.00000022 +00000-0 +00000-0 0  9999
2 26900 000.0170 057.9208 0002963 236.8962 182.1976 01.00272087059818
0 INTELSAT 904
1 27380U 02007A   18008.15495003  .00000127  00000-0  00000+0 0  9992
2 27380   0.0126  95.0837 0002779 193.6749 279.7538  1.00271642 58183
0 INTELSAT 903
1 27403U 02016A   18008.11203728 -.00000234  00000-0  00000+0 0  9995
2 27403   0.2819  95.2326 0000811 238.7573 142.4372  1.00271083 57748
0 INTELSAT 905
1 27438U 02027A   18007.74493765 -.00000195 +00000-0 +00000-0 0  9992
2 27438 000.0143 065.8800 0002131 223.8101 061.2396 01.00269520020469
0 INTELSAT 906
1 27513U 02041A   18008.14814420  .00000005  00000-0  00000+0 0  9990
2 27513   0.0322  86.0791 0003159 230.5959 268.4286  1.00272849 56065
0 INTELSAT 907
1 27683U 03007A   18006.78099241 -.00000214 +00000-0 +00000-0 0  9999
2 27683 000.0106 101.9985 0002969 189.7194 068.2311 01.00272210054536
0 INTELSAT 1002
1 28358U 04022A   18007.99282137 -.00000021  00000-0  00000+0 0  9994
2 28358   0.0137 102.8849 0000642 238.8597 122.1662  1.00273161 49728
0 INTELSAT 11 (PAS 11)
1 32253U 07044B   18008.35532135 -.00000278  00000-0  00000+0 0  9991
2 32253   0.0343 134.3193 0001669 167.8852 250.5648  1.00271422 37627
0 INTELSAT 25(PROTOSTAR 1)
1 33153U 08034A   18006.79210141 -.00000235 +00000-0 +00000-0 0  9991
2 33153 000.0119 093.1858 0003113 192.5900 074.1705 01.00271448034824
0 INTELSAT 14
1 36097U 09064A   18007.82677597 -.00000284  00000-0  00000+0 0  9995
2 36097   0.0156  74.4223 0002583 216.1155  69.4148  1.00271983 29802
0 INTELSAT 15
1 36106U 09067A   18007.82484743 -.00000196 +00000-0 +00000-0 0  9991
2 36106 000.0160 061.2384 0002473 239.7622 188.4075 01.00271808010401
0 INTELSAT 16
1 36397U 10006A   18008.50393236 -.00000254  00000-0  00000+0 0  9994
2 36397   0.0189  29.3942 0002202 277.8330 265.9590  1.00272756 28830
0 INTELSAT 17
1 37238U 10065B   18007.81087569 -.00000012 +00000-0 +00000-0 0  9999
2 37238 000.0122 136.5999 0002941 161.6171 167.0063 01.00272089022513
0 INTELSAT NEW DAWN
1 37392U 11016A   18007.87337698 +.00000145 +00000-0 +00000-0 0  9990
2 37392 000.0246 132.2175 0000636 182.6769 139.7135 01.00274527022408
0 INTELSAT 18
1 37834U 11056A   18008.50065013  .00000044  00000-0  00000+0 0  9992
2 37834   0.0113 325.5051 0002410 346.1590 156.5451  1.00272041 22950
0 INTELSAT 22
1 38098U 12011A   18008.19354675 -.00000068  00000-0  00000+0 0  9994
2 38098   0.0162  16.0496 0002693 270.7684 322.6359  1.00271883 21147
0 INTELSAT 19
1 38356U 12030A   18008.23948784 -.00000066  00000-0  00000+0 0  9995
2 38356   0.0152  19.3911 0002975 273.0359  67.5219  1.00272273 20614
0 INTELSAT 20
1 38740U 12043A   18007.51238421 -.00000036 +00000-0 +00000-0 0  9994
2 38740 000.0107 073.7705 0002705 113.1685 173.0378 01.00272198019863
0 INTELSAT 21
1 38749U 12045A   18007.86280062 -.00000295  00000-0  00000+0 0  9997
2 38749   0.0178  30.0440 0002107 268.1764  61.7584  1.00270139 19738
0 INTELSAT 23
1 38867U 12057A   18007.84898523 -.00000295 +00000-0 +00000-0 0  9997
2 38867 000.0118 023.0314 0001903 275.1616 061.7878 01.00269522019091
0 INTELSAT 30
1 40271U 14062A   18008.15535288 -.00000160  00000-0  00000+0 0  9998
2 40271   0.0171  46.1043 0001937  76.6940 305.7116  1.00270951 11869
0 INTELSAT 34
1 40874U 15039A   18007.85593595 -.00000296  00000-0  00000+0 0  9993
2 40874   0.0203  23.0669 0000653 195.1043 141.8242  1.00272967  8771
0 INTELSAT 29E
1 41308U 16004A   18007.84062855 -.00000292  00000-0  00000+0 0  9994
2 41308   0.0205 283.6274 0001883  13.4233  62.9106  1.00269834  7254
0 INTELSAT 31
1 41581U 16035A   18006.96819560 -.00000162  00000-0  00000+0 0  9992
2 41581   0.0430 216.2235 0002307 352.0815 151.6631  1.00270936  5786
0 INTELSAT 36
1 41747U 16053A   18007.51238214 -.00000035 +00000-0 +00000-0 0  9999
2 41747 000.0107 013.3573 0002315 303.2321 043.3729 01.00272101005085
0 INTELSAT 33E
1 41748U 16053B   18007.53592270 +.00000038 +00000-0 +00000-0 0  9999
2 41748 000.0162 041.5645 0002176 250.6289 067.7639 01.00271253005350
0 INTELSAT 32E
1 41945U 17007B   18006.82451209 -.00000280 +00000-0 +00000-0 0  9995
2 41945 000.0109 065.0811 0000150 185.6224 109.2757 01.00271724003334
0 INTELSAT 35E
1 42818U 17041A   18007.79775212 -.00000249  00000-0  00000+0 0  9997
2 42818   0.0184  41.5657 0002205 257.7277  60.6845  1.00268907  1937
0 INTELSAT 37E
1 42950U 17059A   18008.28243606 -.00000189  00000-0  00000+0 0  9998
2 42950   0.0023 354.6286 0001410 300.7898 358.5926  1.00271921  1149
